DUBAISAT-1              
1 35682U 09041B   26160.28836319  .00000716  00000+0  11363-3 0  9993
2 35682  98.0042 293.6333 0011753  96.1115 264.1434 14.75111216903935
OCEANSAT-2              
1 35931U 09051A   26160.26462655  .00000080  00000+0  80352-4 0  9996
2 35931  98.2324 147.9064 0014682 260.2803  99.6705 13.99664272878226
WORLDVIEW-2 (WV-2)      
1 35946U 09055A   26160.30056793  .00000089  00000+0  43913-4 0  9994
2 35946  98.4736 233.8587 0003305 236.6582 123.4289 14.37897074874519
SMOS                    
1 36036U 09059A   26160.26701857  .00000220  00000+0  84198-4 0  9999
2 36036  98.4426 347.7181 0001336  89.9186 270.2155 14.39768219872311
YAOGAN-7                
1 36110U 09069A   26160.23563062  .00000446  00000+0  68769-4 0  9990
2 36110  98.0082  46.1515 0025935  66.2707 294.1220 14.78001701888456
TANDEM-X                
1 36605U 10030A   26159.49711266  .00001053  00000+0  53316-4 0  9993
2 36605  97.4452 167.3280 0001832  92.3197 267.8248 15.19149084885320
CARTOSAT-2B             
1 36795U 10035A   26160.28694785  .00000377  00000+0  58534-4 0  9998
2 36795  97.9954 210.8869 0010545 210.7445 149.3149 14.78650533858685
YAOGAN-10               
1 36834U 10038A   26160.33356574  .00001202  00000+0  14617-3 0  9993
2 36834  97.8983 183.8009 0001660  88.3539 327.1639 14.85324648856047
COSMO-SKYMED 4          
1 37216U 10060A   26159.39731509  .00000510  00000+0  70656-4 0  9999
2 37216  97.8890 343.1246 0001413  83.8256 276.3118 14.82162251843269
RESOURCESAT-2           
1 37387U 11015A   26160.27653411  .00000049  00000+0  42583-4 0  9998
2 37387  98.7644 227.7727 0010130 281.0336  78.9702 14.21604715785059
HAIYANG-2A              
1 37781U 11043A   26160.24933416  .00000088  00000+0  13886-3 0  9996
2 37781  99.3399 163.1006 0006297 106.7874 253.3967 13.74550315745560
RASAT                   
1 37791U 11044D   26160.27606910  .00000464  00000+0  88910-4 0  9996
2 37791  98.0567 251.7936 0019630 214.5979 230.0639 14.68159334792020
SRMSAT                  
1 37841U 11058D   26160.24317178  .00000362  00000+0  52709-4 0  9993
2 37841  19.9710 107.5505 0011939 116.6749 358.0957 14.11573893756694
PLEIADES 1A             
1 38012U 11076F   26160.30133331  .00000318  00000+0  78253-4 0  9991
2 38012  98.1971 235.5097 0001511  98.2859 303.5705 14.58566460770845
ZIYUAN 1-02C (ZY 1-02C) 
1 38038U 11079A   26160.28830231  .00000406  00000+0  14792-3 0  9997
2 38038  98.4067 227.7619 0006003 343.2380 102.8704 14.38208768758070
ARIRANG-3 (KOMPSAT-3)   
1 38338U 12025B   26160.30003507  .00000386  00000+0  85874-4 0  9990
2 38338  98.1174 117.8963 0006346 129.5594 230.6169 14.62199196750193
EXACTVIEW-1 (ADS-1B)    
1 38709U 12039C   26160.30642606  .00000102  00000+0  63336-4 0  9991
2 38709  98.9768 277.5190 0010740 188.8596 171.2394 14.24982281721585
SPOT 6                  
1 38755U 12047A   26160.24007115  .00000328  00000+0  80506-4 0  9992
2 38755  98.2116 227.6418 0001434  92.0405 268.0959 14.58558675731890
PLEIADES 1B             
1 39019U 12068A   26160.32757553  .00000317  00000+0  78102-4 0  9993
2 39019  98.1941 235.4874 0001588  94.2365 265.9015 14.58556109719706
GOKTURK 2               
1 39030U 12073A   26160.28227800  .00000237  00000+0  41675-4 0  9990
2 39030  97.6828 358.1102 0001881  60.0294 300.1103 14.75534355723345
LANDSAT 8               
1 39084U 13008A   26160.19633211  .00000267  00000+0  69414-4 0  9999
2 39084  98.2302 230.4263 0001462  95.9200 264.2165 14.57113299696737
SARAL                   
1 39086U 13009A   26160.28970163  .00000078  00000+0  44529-4 0  9992
2 39086  98.5558 346.9572 0001142 348.3731  11.7426 14.32853952694474
GAOFEN-1                
1 39150U 13018A   26160.26976197 -.00000028  00000+0  33697-5 0  9996
2 39150  97.9100 232.4987 0015805 293.5980  66.3570 14.76527775707075
VNREDSAT 1              
1 39160U 13021B   26160.30198929  .00000487  00000+0  99678-4 0  9993
2 39160  97.9081 214.0209 0001673  88.8554 271.2841 14.64848706699139
ARIRANG-5 (KOMPSAT-5)   
1 39227U 13042A   26159.98539375  .00001848  00000+0  13611-3 0  9990
2 39227  97.6218 346.8017 0004248 139.4546 220.6997 15.04559791702625
SKYSAT-A                
1 39418U 13066C   26160.12239383  .00002379  00000+0  13797-3 0  9997
2 39418  97.3819 209.7765 0020838 346.7375  13.3306 15.12931553687266
DUBAISAT-2              
1 39419U 13066D   26160.25208743  .00003885  00000+0  24169-3 0  9996
2 39419  97.4569 150.6049 0012744  64.5781 295.6766 15.10123639685193
GPM-CORE                
1 39574U 14009C   26160.18116421  .00006232  00000+0  13442-3 0  9990
2 39574  64.9730 334.9442 0012084 270.4025  89.5731 15.45455750696570
SENTINEL-1A             
1 39634U 14016A   26160.27607013  .00000145  00000+0  40410-4 0  9990
2 39634  98.1783 167.9245 0001430  81.4851 278.6510 14.59200695648864
KAZEOSAT 1              
1 39731U 14024A   26160.31999278  .00000221  00000+0  80246-4 0  9995
2 39731  98.3201 232.9626 0001460  75.5890 284.5462 14.42077314637429
