OBJECT_NAME,OBJECT_ID,EPOCH,MEAN_MOTION,ECCENTRICITY,INCLINATION,RA_OF_ASC_NODE,ARG_OF_PERICENTER,MEAN_ANOMALY,EPHEMERIS_TYPE,CLASSIFICATION_TYPE,NORAD_CAT_ID,ELEMENT_SET_NO,REV_AT_EPOCH,BSTAR,MEAN_MOTION_DOT,MEAN_MOTION_DDOT
DUBAISAT-1,2009-041B,2026-06-09T06:55:14.579616,14.75111216,.00117532,98.0042,293.6333,96.1115,264.1434,0,U,35682,999,90393,.11363186E-3,.716E-5,0
OCEANSAT-2,2009-051A,2026-06-09T06:21:03.733920,13.99664272,.00146826,98.2324,147.9064,260.2803,99.6705,0,U,35931,999,87822,.80352302E-4,.8E-6,0
WORLDVIEW-2 (WV-2),2009-055A,2026-06-09T07:12:49.069152,14.37897074,.00033056,98.4736,233.8587,236.6582,123.4289,0,U,35946,999,87451,.43912757E-4,.89E-6,0
SMOS,2009-059A,2026-06-09T06:24:30.404448,14.39768219,.00013367,98.4426,347.7181,89.9186,270.2155,0,U,36036,999,87231,.8419756E-4,.22E-5,0
YAOGAN-7,2009-069A,2026-06-09T05:39:18.485568,14.78001701,.00259352,98.0082,46.1515,66.2707,294.1220,0,U,36110,999,88845,.6876894E-4,.446E-5,0
TANDEM-X,2010-030A,2026-06-08T11:55:50.533824,15.19149084,.00018322,97.4452,167.3280,92.3197,267.8248,0,U,36605,999,88532,.53316429E-4,.1053E-4,0
CARTOSAT-2B,2010-035A,2026-06-09T06:53:12.294240,14.78650533,.00105455,97.9954,210.8869,210.7445,149.3149,0,U,36795,999,85868,.58534409E-4,.377E-5,0
YAOGAN-10,2010-038A,2026-06-09T08:00:20.079936,14.85324648,.000166,97.8983,183.8009,88.3539,327.1639,0,U,36834,999,85604,.14616782E-3,.1202E-4,0
COSMO-SKYMED 4,2010-060A,2026-06-08T09:32:08.023776,14.82162251,.00014135,97.8890,343.1246,83.8256,276.3118,0,U,37216,999,84326,.70656283E-4,.51E-5,0
RESOURCESAT-2,2011-015A,2026-06-09T06:38:12.547104,14.21604715,.00101308,98.7644,227.7727,281.0336,78.9702,0,U,37387,999,78505,.42583416E-4,.49E-6,0
HAIYANG-2A,2011-043A,2026-06-09T05:59:02.471424,13.74550315,.0006297,99.3399,163.1006,106.7874,253.3967,0,U,37781,999,74556,.13886128E-3,.88E-6,0
RASAT,2011-044D,2026-06-09T06:37:32.370240,14.68159334,.00196304,98.0567,251.7936,214.5979,230.0639,0,U,37791,999,79202,.88909697E-4,.464E-5,0
SRMSAT,2011-058D,2026-06-09T05:50:10.041792,14.11573893,.00119399,19.9710,107.5505,116.6749,358.0957,0,U,37841,999,75669,.52709345E-4,.362E-5,0
PLEIADES 1A,2011-076F,2026-06-09T07:13:55.197984,14.58566460,.00015113,98.1971,235.5097,98.2859,303.5705,0,U,38012,999,77084,.78252724E-4,.318E-5,0
ZIYUAN 1-02C (ZY 1-02C),2011-079A,2026-06-09T06:55:09.319584,14.38208768,.00060031,98.4067,227.7619,343.2380,102.8704,0,U,38038,999,75807,.14791749E-3,.406E-5,0
ARIRANG-3 (KOMPSAT-3),2012-025B,2026-06-09T07:12:03.030048,14.62199196,.00063467,98.1174,117.8963,129.5594,230.6169,0,U,38338,999,75019,.85874283E-4,.386E-5,0
EXACTVIEW-1 (ADS-1B),2012-039C,2026-06-09T07:21:15.211584,14.24982281,.00107404,98.9768,277.5190,188.8596,171.2394,0,U,38709,999,72158,.63336471E-4,.102E-5,0
SPOT 6,2012-047A,2026-06-09T05:45:42.147360,14.58558675,.00014341,98.2116,227.6418,92.0405,268.0959,0,U,38755,999,73189,.80505737E-4,.328E-5,0
PLEIADES 1B,2012-068A,2026-06-09T07:51:42.525792,14.58556109,.00015881,98.1941,235.4874,94.2365,265.9015,0,U,39019,999,71970,.78102252E-4,.317E-5,0
GOKTURK 2,2012-073A,2026-06-09T06:46:28.819200,14.75534355,.0001881,97.6828,358.1102,60.0294,300.1103,0,U,39030,999,72334,.41675288E-4,.237E-5,0
LANDSAT 8,2013-008A,2026-06-09T04:42:43.094304,14.57113299,.00014626,98.2302,230.4263,95.9200,264.2165,0,U,39084,999,69673,.69414078E-4,.267E-5,0
SARAL,2013-009A,2026-06-09T06:57:10.220832,14.32853952,.00011421,98.5558,346.9572,348.3731,11.7426,0,U,39086,999,69447,.44528652E-4,.78E-6,0
GAOFEN-1,2013-018A,2026-06-09T06:28:27.434208,14.76527775,.00158057,97.9100,232.4987,293.5980,66.3570,0,U,39150,999,70707,.3369667E-5,-.28E-6,0
VNREDSAT 1,2013-021B,2026-06-09T07:14:51.874656,14.64848706,.00016732,97.9081,214.0209,88.8554,271.2841,0,U,39160,999,69913,.99678461E-4,.487E-5,0
ARIRANG-5 (KOMPSAT-5),2013-042A,2026-06-08T23:38:58.020000,15.04559791,.0004248,97.6218,346.8017,139.4546,220.6997,0,U,39227,999,70262,.13610837E-3,.1848E-4,0
SKYSAT-A,2013-066C,2026-06-09T02:56:14.826912,15.12931553,.00208382,97.3819,209.7765,346.7375,13.3306,0,U,39418,999,68726,.13797348E-3,.2379E-4,0
DUBAISAT-2,2013-066D,2026-06-09T06:03:00.353952,15.10123639,.00127445,97.4569,150.6049,64.5781,295.6766,0,U,39419,999,68519,.24169322E-3,.3885E-4,0
GPM-CORE,2014-009C,2026-06-09T04:20:52.587744,15.45455750,.00120847,64.9730,334.9442,270.4025,89.5731,0,U,39574,999,69657,.13441712E-3,.6232E-4,0
SENTINEL-1A,2014-016A,2026-06-09T06:37:32.459232,14.59200695,.00014304,98.1783,167.9245,81.4851,278.6510,0,U,39634,999,64886,.4041007E-4,.145E-5,0
KAZEOSAT 1,2014-024A,2026-06-09T07:40:47.376192,14.42077314,.000146,98.3201,232.9626,75.5890,284.5462,0,U,39731,999,63742,.80245838E-4,.221E-5,0
